{"type": "FeatureCollection", "features": [ {"type": "Feature", "properties": {"norad_id": 42741, "name": "EUTELSAT 172B", "group": "eutelsat", "lat": 0.005628382902229072, "lon": 64.9186199964628, "alt_km": 35788.23026324322, "timestamp": "2025-12-10T11:33:53.062948+00:00", "meta": {"OBJECT_NAME": "EUTELSAT 172B", "OBJECT_ID": "2017-029B", "EPOCH": "2025-12-09T21:14:19.343904", "MEAN_MOTION": 1.00266815, "ECCENTRICITY": 2.54e-05, "INCLINATION": 0.0106, "RA_OF_ASC_NODE": 88.5539, "ARG_OF_PERICENTER": 113.0193, "MEAN_ANOMALY": 7.8822, "EPHEMERIS_TYPE": 0, "CLASSIFICATION_TYPE": "U", "NORAD_CAT_ID": 42741, "ELEMENT_SET_NO": 999, "REV_AT_EPOCH": 3183, "BSTAR": 0, "MEAN_MOTION_DOT": -4e-08, "MEAN_MOTION_DDOT": 0}, "tle": {"line1": "1 42741U 17029B   25343.88494611 -.00000004  00000+0  00000+0 0  9998", "line2": "2 42741   0.0106  88.5539 0000254 113.0193   7.8822  1.00266815 31835"}}, "geometry": {"type": "Point", "coordinates": [64.9186199964628, 0.005628382902229072]}}, {"type": "Feature", "properties": {"norad_id": 44334, "name": "EUTELSAT 7C", "group": "eutelsat", "lat": 0.051789791059041156, "lon": -100.08380968420022, "alt_km": 35772.68409905427, "timestamp": "2025-12-10T11:33:53.062960+00:00", "meta": {"OBJECT_NAME": "EUTELSAT 7C", "OBJECT_ID": "2019-034B", "EPOCH": "2025-12-10T00:54:38.687328", "MEAN_MOTION": 1.00271046, "ECCENTRICITY": 0.0003355, "INCLINATION": 0.0729, "RA_OF_ASC_NODE": 178.2937, "ARG_OF_PERICENTER": 64.3773, "MEAN_ANOMALY": 216.9906, "EPHEMERIS_TYPE": 0, "CLASSIFICATION_TYPE": "U", "NORAD_CAT_ID": 44334, "ELEMENT_SET_NO": 999, "REV_AT_EPOCH": 493, "BSTAR": 0, "MEAN_MOTION_DOT": 5.1e-07, "MEAN_MOTION_DDOT": 0}, "tle": {"line1": "1 44334U 19034B   25344.03794777  .00000051  00000+0  00000+0 0  9991", "line2": "2 44334   0.0729 178.2937 0003355  64.3773 216.9906  1.00271046  4931"}}, "geometry": {"type": "Point", "coordinates": [-100.08380968420022, 0.051789791059041156]}}, {"type": "Feature", "properties": {"norad_id": 44624, "name": "EUTELSAT 5 WEST B", "group": "eutelsat", "lat": -0.08210080931103902, "lon": -112.08491121921702, "alt_km": 35771.821693395395, "timestamp": "2025-12-10T11:33:53.062971+00:00", "meta": {"OBJECT_NAME": "EUTELSAT 5 WEST B", "OBJECT_ID": "2019-067A", "EPOCH": "2025-12-09T23:54:38.674080", "MEAN_MOTION": 1.0027126, "ECCENTRICITY": 0.0003479, "INCLINATION": 0.0634, "RA_OF_ASC_NODE": 343.3275, "ARG_OF_PERICENTER": 276.5671, "MEAN_ANOMALY": 172.7444, "EPHEMERIS_TYPE": 0, "CLASSIFICATION_TYPE": "U", "NORAD_CAT_ID": 44624, "ELEMENT_SET_NO": 999, "REV_AT_EPOCH": 2254, "BSTAR": 0, "MEAN_MOTION_DOT": -3.9e-07, "MEAN_MOTION_DDOT": 0}, "tle": {"line1": "1 44624U 19067A   25343.99628095 -.00000039  00000+0  00000+0 0  9999", "line2": "2 44624   0.0634 343.3275 0003479 276.5671 172.7444  1.00271260 22540"}}, "geometry": {"type": "Point", "coordinates": [-112.08491121921702, -0.08210080931103902]}}, {"type": "Feature", "properties": {"norad_id": 45027, "name": "EUTELSAT KONNECT", "group": "eutelsat", "lat": -0.0014005048687669801, "lon": -99.90246155655225, "alt_km": 35780.41162031615, "timestamp": "2025-12-10T11:33:53.062983+00:00", "meta": {"OBJECT_NAME": "EUTELSAT KONNECT", "OBJECT_ID": "2020-005B", "EPOCH": "2025-12-10T00:54:38.687328", "MEAN_MOTION": 1.00268676, "ECCENTRICITY": 0.0001729, "INCLINATION": 0.0718, "RA_OF_ASC_NODE": 96.1497, "ARG_OF_PERICENTER": 191.1313, "MEAN_ANOMALY": 172.586, "EPHEMERIS_TYPE": 0, "CLASSIFICATION_TYPE": "U", "NORAD_CAT_ID": 45027, "ELEMENT_SET_NO": 999, "REV_AT_EPOCH": 2244, "BSTAR": 0, "MEAN_MOTION_DOT": 5.2e-07, "MEAN_MOTION_DDOT": 0}, "tle": {"line1": "1 45027U 20005B   25344.03794777  .00000052  00000+0  00000+0 0  9992", "line2": "2 45027   0.0718  96.1497 0001729 191.1313 172.5860  1.00268676 22447"}}, "geometry": {"type": "Point", "coordinates": [-99.90246155655225, -0.0014005048687669801]}}, {"type": "Feature", "properties": {"norad_id": 49056, "name": "EUTELSAT QUANTUM", "group": "eutelsat", "lat": -0.027854801395053422, "lon": -59.35744888460386, "alt_km": 35772.32587919703, "timestamp": "2025-12-10T11:33:53.062994+00:00", "meta": {"OBJECT_NAME": "EUTELSAT QUANTUM", "OBJECT_ID": "2021-069B", "EPOCH": "2025-12-10T01:01:38.759808", "MEAN_MOTION": 1.00271191, "ECCENTRICITY": 0.0003733, "INCLINATION": 0.0154, "RA_OF_ASC_NODE": 17.7471, "ARG_OF_PERICENTER": 254.4251, "MEAN_ANOMALY": 229.9614, "EPHEMERIS_TYPE": 0, "CLASSIFICATION_TYPE": "U", "NORAD_CAT_ID": 49056, "ELEMENT_SET_NO": 999, "REV_AT_EPOCH": 1603, "BSTAR": 0, "MEAN_MOTION_DOT": 1.29e-06, "MEAN_MOTION_DDOT": 0}, "tle": {"line1": "1 49056U 21069B   25344.04280972  .00000129  00000+0  00000+0 0  9992", "line2": "2 49056   0.0154  17.7471 0003733 254.4251 229.9614  1.00271191 16037"}}, "geometry": {"type": "Point", "coordinates": [-59.35744888460386, -0.027854801395053422]}}, {"type": "Feature", "properties": {"norad_id": 53765, "name": "EUTELSAT KONNECT VHTS", "group": "eutelsat", "lat": 0.005666157684094659, "lon": -104.3613061286463, "alt_km": 35775.86241385184, "timestamp": "2025-12-10T11:33:53.063019+00:00", "meta": {"OBJECT_NAME": "EUTELSAT KONNECT VHTS", "OBJECT_ID": "2022-110A", "EPOCH": "2025-12-09T23:46:38.709120", "MEAN_MOTION": 1.00271013, "ECCENTRICITY": 0.0002577, "INCLINATION": 0.0646, "RA_OF_ASC_NODE": 101.3791, "ARG_OF_PERICENTER": 136.8427, "MEAN_ANOMALY": 200.1185, "EPHEMERIS_TYPE": 0, "CLASSIFICATION_TYPE": "U", "NORAD_CAT_ID": 53765, "ELEMENT_SET_NO": 999, "REV_AT_EPOCH": 492, "BSTAR": 0, "MEAN_MOTION_DOT": 2e-07, "MEAN_MOTION_DDOT": 0}, "tle": {"line1": "1 53765U 22110A   25343.99072580  .00000020  00000+0  00000+0 0  9999", "line2": "2 53765   0.0646 101.3791 0002577 136.8427 200.1185  1.00271013  4925"}}, "geometry": {"type": "Point", "coordinates": [-104.3613061286463, 0.005666157684094659]}}, {"type": "Feature", "properties": {"norad_id": 54048, "name": "EUTELSAT HOTBIRD 13F", "group": "eutelsat", "lat": -0.036635573902536724, "lon": -94.08311071910389, "alt_km": 35786.95298975898, "timestamp": "2025-12-10T11:33:53.063034+00:00", "meta": {"OBJECT_NAME": "EUTELSAT HOTBIRD 13F", "OBJECT_ID": "2022-134A", "EPOCH": "2025-12-10T00:54:38.687328", "MEAN_MOTION": 1.00269342, "ECCENTRICITY": 0.0001965, "INCLINATION": 0.0509, "RA_OF_ASC_NODE": 290.7217, "ARG_OF_PERICENTER": 66.6695, "MEAN_ANOMALY": 108.3077, "EPHEMERIS_TYPE": 0, "CLASSIFICATION_TYPE": "U", "NORAD_CAT_ID": 54048, "ELEMENT_SET_NO": 999, "REV_AT_EPOCH": 1148, "BSTAR": 0, "MEAN_MOTION_DOT": 9e-07, "MEAN_MOTION_DDOT": 0}, "tle": {"line1": "1 54048U 22134A   25344.03794777  .00000090  00000+0  00000+0 0  9992", "line2": "2 54048   0.0509 290.7217 0001965  66.6695 108.3077  1.00269342 11481"}}, "geometry": {"type": "Point", "coordinates": [-94.08311071910389, -0.036635573902536724]}}, {"type": "Feature", "properties": {"norad_id": 54225, "name": "EUTELSAT HOTBIRD 13G", "group": "eutelsat", "lat": 0.0031811302740936357, "lon": -94.05944927628724, "alt_km": 35782.58233591913, "timestamp": "2025-12-10T11:33:53.063046+00:00", "meta": {"OBJECT_NAME": "EUTELSAT HOTBIRD 13G", "OBJECT_ID": "2022-146A", "EPOCH": "2025-12-10T00:54:38.687328", "MEAN_MOTION": 1.00273852, "ECCENTRICITY": 0.0001852, "INCLINATION": 0.0516, "RA_OF_ASC_NODE": 237.7706, "ARG_OF_PERICENTER": 319.6405, "MEAN_ANOMALY": 268.2621, "EPHEMERIS_TYPE": 0, "CLASSIFICATION_TYPE": "U", "NORAD_CAT_ID": 54225, "ELEMENT_SET_NO": 999, "REV_AT_EPOCH": 557, "BSTAR": 0, "MEAN_MOTION_DOT": 9e-07, "MEAN_MOTION_DDOT": 0}, "tle": {"line1": "1 54225U 22146A   25344.03794777  .00000090  00000+0  00000+0 0  9992", "line2": "2 54225   0.0516 237.7706 0001852 319.6405 268.2621  1.00273852  5570"}}, "geometry": {"type": "Point", "coordinates": [-94.05944927628724, 0.0031811302740936357]}}, {"type": "Feature", "properties": {"norad_id": 54259, "name": "EUTELSAT 10B", "group": "eutelsat", "lat": -0.004807421093863637, "lon": -97.09361304242158, "alt_km": 35786.76348576526, "timestamp": "2025-12-10T11:33:53.063058+00:00", "meta": {"OBJECT_NAME": "EUTELSAT 10B", "OBJECT_ID": "2022-157A", "EPOCH": "2025-12-10T00:54:38.687328", "MEAN_MOTION": 1.00269493, "ECCENTRICITY": 7.92e-05, "INCLINATION": 0.0605, "RA_OF_ASC_NODE": 99.2164, "ARG_OF_PERICENTER": 72.3757, "MEAN_ANOMALY": 291.0644, "EPHEMERIS_TYPE": 0, "CLASSIFICATION_TYPE": "U", "NORAD_CAT_ID": 54259, "ELEMENT_SET_NO": 999, "REV_AT_EPOCH": 1113, "BSTAR": 0, "MEAN_MOTION_DOT": 7.1e-07, "MEAN_MOTION_DDOT": 0}, "tle": {"line1": "1 54259U 22157A   25344.03794777  .00000071  00000+0  00000+0 0  9990", "line2": "2 54259   0.0605  99.2164 0000792  72.3757 291.0644  1.00269493 11134"}}, "geometry": {"type": "Point", "coordinates": [-97.09361304242158, -0.004807421093863637]}}, {"type": "Feature", "properties": {"norad_id": 59346, "name": "EUTELSAT 36D", "group": "eutelsat", "lat": -0.030855257633074396, "lon": -71.23241043526404, "alt_km": 35785.35746645965, "timestamp": "2025-12-10T11:33:53.063069+00:00", "meta": {"OBJECT_NAME": "EUTELSAT 36D", "OBJECT_ID": "2024-059A", "EPOCH": "2025-12-09T22:51:38.731104", "MEAN_MOTION": 1.00268847, "ECCENTRICITY": 4.93e-05, "INCLINATION": 0.0174, "RA_OF_ASC_NODE": 350.2442, "ARG_OF_PERICENTER": 342.9302, "MEAN_ANOMALY": 124.5242, "EPHEMERIS_TYPE": 0, "CLASSIFICATION_TYPE": "U", "NORAD_CAT_ID": 59346, "ELEMENT_SET_NO": 999, "REV_AT_EPOCH": 625, "BSTAR": 0, "MEAN_MOTION_DOT": 0, "MEAN_MOTION_DDOT": 0}, "tle": {"line1": "1 59346U 24059A   25343.95253161  .00000000  00000+0  00000+0 0  9994", "line2": "2 59346   0.0174 350.2442 0000493 342.9302 124.5242  1.00268847  6259"}}, "geometry": {"type": "Point", "coordinates": [-71.23241043526404, -0.030855257633074396]}}]}